IRIDIUM 136             
1 42962U 17061H   23208.16748052  .00000338  00000+0  11371-3 0  9995
2 42962  86.3966 106.6114 0001944  82.0112 278.1305 14.34219891303479
